[
    {
        "Altitude(m)": 610405.2801723005,
        "Argument of Periapsis(deg)": 0.0,
        "Eccentricity": 0.0,
        "Inclination(deg)": 60.0,
        "Latitude(deg)": 52.111153335958186,
        "Longitude(deg)": -117.52249745914611,
        "Mean Anomaly(deg)": 114.5455,
        "RAAN(deg)": 210.0,
        "Satellite Name": "Test1 931",
        "Satellite Number": 931,
        "Semi-Major Axis(m)": 6980739.136638005,
        "Time(s)": 0
    },
    {
        "Altitude(m)": 610321.8526977674,
        "Argument of Periapsis(deg)": 0.00010418945913296404,
        "Eccentricity": 0.0,
        "Inclination(deg)": 60.0,
        "Latitude(deg)": 51.74586742612608,
        "Longitude(deg)": -116.75360674687325,
        "Mean Anomaly(deg)": 115.16560614546188,
        "RAAN(deg)": 209.99957995086027,
        "Satellite Name": "Test1 931",
        "Satellite Number": 931,
        "Semi-Major Axis(m)": 6980739.136638005,
        "Time(s)": 10
    }
]